BEIJING 1               
1 28890U 05043A   22265.55727179  .00000185  00000+0  46720-4 0  9995
2 28890  98.1291  26.2354 0014211 227.1073 132.8939 14.61493668901320
HJ-1A                   
1 33320U 08041A   22265.44269657  .00000339  00000+0  53745-4 0  9996
2 33320  97.6721 293.9263 0019585 277.5969  82.3022 14.77916550756710
HJ-1B                   
1 33321U 08041B   22265.46150923  .00000798  00000+0  11692-3 0  9997
2 33321  97.6886 297.7045 0033010 296.2961  63.4866 14.77879587756716
YAOGAN 4                
1 33446U 08061A   22265.09149432  .00000462  00000+0  71779-4 0  9990
2 33446  97.8215 202.3043 0016170 176.2394 183.8941 14.77468926743861
DEIMOS-1                
1 35681U 09041A   22265.46067900  .00000319  00000+0  57959-4 0  9997
2 35681  97.7046 111.5142 0000196 346.8878  13.2330 14.72111675706047
UK-DMC 2                
1 35683U 09041C   22265.39188011  .00000534  00000+0  93443-4 0  9995
2 35683  97.7062  73.2640 0001241  62.2285 297.9052 14.71496569705764
RISAT 1                 
1 38248U 12017A   22265.53738034  .00002665  00000+0  15694-3 0  9992
2 38248  97.5534 275.8698 0002234 297.0403  63.0599 15.12471810573514
DMC3-FM1                
1 40715U 15032A   22265.47902787  .00000399  00000+0  56535-4 0  9997
2 40715  97.8320 150.3254 0005249 190.4802 169.6284 14.82195315387667
DMC3-FM2                
1 40716U 15032B   22265.43452074  .00000396  00000+0  56272-4 0  9998
2 40716  97.8361 150.9738 0007196 197.0769 163.0182 14.82187616387664
DMC3-FM3                
1 40717U 15032C   22265.45579287  .00000397  00000+0  56363-4 0  9999
2 40717  97.8397 151.9479 0009004 197.4343 162.6563 14.82215446387660
